[{"OBJECT_NAME":"STARLINK-1331","OBJECT_ID":"2020-025AZ","EPOCH":"2026-03-09T23:01:45.024960","MEAN_MOTION":15.48337818,"ECCENTRICITY":0.00048402,"INCLINATION":53.0535,"RA_OF_ASC_NODE":63.873,"ARG_OF_PERICENTER":82.5874,"MEAN_ANOMALY":277.5683,"EPHEMERIS_TYPE":0,"CLASSIFICATION_TYPE":"U","NORAD_CAT_ID":45578,"ELEMENT_SET_NO":999,"REV_AT_EPOCH":32572,"BSTAR":0.0018648663,"MEAN_MOTION_DOT":0.0010115,"MEAN_MOTION_DDOT":0},{"OBJECT_NAME":"HAWK-5B","OBJECT_ID":"2022-057AA","EPOCH":"2026-03-09T22:02:04.567488","MEAN_MOTION":15.47549046,"ECCENTRICITY":0.00055009,"INCLINATION":97.6458,"RA_OF_ASC_NODE":220.9014,"ARG_OF_PERICENTER":70.2487,"MEAN_ANOMALY":289.9355,"EPHEMERIS_TYPE":0,"CLASSIFICATION_TYPE":"U","NORAD_CAT_ID":52756,"ELEMENT_SET_NO":999,"REV_AT_EPOCH":21097,"BSTAR":0.00045271337,"MEAN_MOTION_DOT":0.00023244,"MEAN_MOTION_DDOT":0}]
